ONEWEB-0640             
1 55804U 23029J   23091.84193701  .00007193  00000+0  69662-3 0  9997
2 55804  86.5106 189.1239 0014801 139.7225 220.5103 14.92508938  3449
ONEWEB-0641             
1 55805U 23029K   23091.81481829 -.00307970  00000+0 -37954-1 0  9991
2 55805  86.5664 189.2232 0013585 137.5266 222.7012 14.84763951  3433
ONEWEB-0642             
1 55806U 23029L   23091.75671378  .00005766  00000+0  65637-3 0  9992
2 55806  86.5558 189.2673 0010995 133.9473 226.2660 14.85999280  3421
ONEWEB-0643             
1 55807U 23029M   23091.84763632  .00007344  00000+0  71813-3 0  9995
2 55807  86.5104 189.1238 0014357 134.1795 226.0616 14.92136499  3445
ONEWEB-0644             
1 55808U 23029N   23091.75953509 -.00175295  00000+0 -21006-1 0  9990
2 55808  86.5554 189.2685 0011197 132.7636 227.4532 14.85167001  3424
ONEWEB-0645             
1 55809U 23029P   23091.81348030  .00006014  00000+0  67923-3 0  9995
2 55809  86.5562 189.2257 0013538 131.8552 228.3831 14.86305660  3436
ONEWEB-0646             
1 55810U 23029Q   23091.82674335  .00003761  00000+0  43059-3 0  9998
2 55810  86.5572 189.2409 0010980 133.7460 226.4676 14.85663992  3435
ONEWEB-0648             
1 55811U 23029R   23091.84614915  .00007449  00000+0  72652-3 0  9997
2 55811  86.5108 189.1266 0014646 134.3495 225.8936 14.92236109  3446
ONEWEB-0649             
1 55812U 23029S   23091.75086339 -.00184527  00000+0 -21679-1 0  9997
2 55812  86.5471 189.2425 0012550 131.6419 228.5883 14.86018368  3423
ONEWEB-0650             
1 55813U 23029T   23091.81593219 -.00159904  00000+0 -18837-1 0  9998
2 55813  86.5563 189.2262 0013316 128.5081 231.7340 14.85756441  3431
ONEWEB-0652             
1 55814U 23029U   23091.78180816  .00007196  00000+0  70510-3 0  9991
2 55814  86.5105 189.1546 0014027 133.7077 226.5315 14.92054853  3431
ONEWEB-0653             
1 55815U 23029V   23091.78226626  .00007098  00000+0  69610-3 0  9992
2 55815  86.5116 189.1623 0013795 133.0372 227.2014 14.92021909  3432
ONEWEB-0654             
1 55816U 23029W   23091.84173040  .00012099  00000+0  11724-2 0  9990
2 55816  86.5119 189.1256 0015322 139.2023 221.0355 14.92523973  3446
ONEWEB-0656             
1 55817U 23029X   23091.83729709  .00007896  00000+0  75879-3 0  9990
2 55817  86.5101 189.1207 0015793 143.6856 216.5448 14.92820122  3447
ONEWEB-0657             
1 55818U 23029Y   23091.91667824 -.00808179  00000+0 -11295+0 0  9992
2 55818  86.5906 189.1834 0014115 132.0891  36.2328 14.80661697  1309
ONEWEB-0658             
1 55819U 23029Z   23091.87847644 -.00324996  00000+0 -39638-1 0  9991
2 55819  86.5591 189.1859 0014418 128.0886 232.1641 14.85278957  3442
ONEWEB-0660             
1 55820U 23029AA  23091.84811525  .00007616  00000+0  74547-3 0  9994
2 55820  86.5116 189.1324 0014093 134.4422 225.7962 14.92105303  3446
ONEWEB-0661             
1 55821U 23029AB  23091.84062021  .00007705  00000+0  74460-3 0  9997
2 55821  86.5096 189.1214 0015359 140.0000 220.2363 14.92597562  3440
ONEWEB-0662             
1 55822U 23029AC  23091.84800833  .00007453  00000+0  72934-3 0  9993
2 55822  86.5119 189.1323 0014168 133.7293 226.5110 14.92110066  3447
ONEWEB-0663             
1 55823U 23029AD  23091.83841123 -.00001868  00000+0 -18393-3 0  9995
2 55823  86.5126 189.1246 0015368 142.6605 217.5694 14.92713296  3440
ONEWEB-0664             
1 55824U 23029AE  23091.84025661  .00007263  00000+0  70141-3 0  9990
2 55824  86.5093 189.1201 0015557 140.5862 219.6501 14.92617321  3449
ONEWEB-0665             
1 55825U 23029AF  23091.84253192  .00007424  00000+0  71959-3 0  9990
2 55825  86.5110 189.1248 0015393 138.3424 221.8980 14.92474358  3445
ONEWEB-0666             
1 55826U 23029AG  23091.83909816  .00007005  00000+0  67515-3 0  9999
2 55826  86.5128 189.1260 0015583 141.9636 218.2696 14.92691314  3442
ONEWEB-0667             
1 55827U 23029AH  23091.76961979  .00007067  00000+0  67821-3 0  9998
2 55827  86.5115 189.1514 0015931 144.3779 215.8516 14.92854731  3430
ONEWEB-0669             
1 55828U 23029AJ  23091.83790089  .00007387  00000+0  71049-3 0  9991
2 55828  86.5100 189.1206 0015707 143.1365 217.0946 14.92777785  3447
ONEWEB-0670             
1 55829U 23029AK  23091.84102671  .00002042  00000+0  19549-3 0  9997
2 55829  86.5114 189.1242 0015333 137.9767 222.2641 14.92568286  3449
ONEWEB-0671             
1 55830U 23029AL  23091.81518781  .00006099  00000+0  68918-3 0  9999
2 55830  86.5546 189.2211 0013615 132.0610 228.1776 14.86282229  3437
ONEWEB-0672             
1 55831U 23029AM  23091.83855832  .00007602  00000+0  73208-3 0  9992
2 55831  86.5095 189.1195 0015600 142.3499 217.8825 14.92731915  3441
ONEWEB-0673             
1 55832U 23029AN  23091.88972283 -.00319342  00000+0 -40218-1 0  9990
2 55832  86.5666 189.1986 0011428 117.3698 242.8690 14.83963344  3442
ONEWEB-0674             
1 55833U 23029AP  23091.84041198  .00007313  00000+0  70632-3 0  9994
2 55833  86.5126 189.1265 0015589 140.4420 219.7949 14.92610165  3446
ONEWEB-0675             
1 55834U 23029AQ  23091.81679254 -.00179101  00000+0 -20989-1 0  9997
2 55834  86.5509 189.2209 0012417 127.2015 233.0345 14.86090783  3430
ONEWEB-0720             
1 55835U 23029AR  23091.91667824 -.00767352  00000+0 -14374+0 0  9999
2 55835  86.6704 189.4046 0009835 136.7000 177.5908 14.67527767  1306
2023-030A               
1 55836U 23030A   23091.81741205 -.00000633  00000+0 -39063-3 0  9995
2 55836  98.9961  99.8740 0003359 125.4705 234.6766 14.01399331  3216
2023-030B               
1 55837U 23030B   23091.87218747  .00000978  00000+0  64867-3 0  9992
2 55837  98.9980  99.9686 0003116 190.3620 169.7489 14.03802573  3226
2023-030C               
1 55838U 23030C   23091.94262926  .00000360  00000+0  17962-3 0  9998
2 55838  99.0060 100.7879 0087472 338.4549  21.2961 14.21270765  3279
2023-030D               
1 55839U 23030D   23091.10325652  .00000001  00000+0  29805-4 0  9995
2 55839  98.9974  99.1722 0002749 148.7348 211.4044 14.01406737  3108
LUCH-5X (OLYMP-K 2)     
1 55841U 23031A   23091.86507816  .00000093  00000+0  00000+0 0  9998
2 55841   0.1337 343.4711 0007443 223.6278 356.4664  0.99759819   203
BREEZE-M R/B            
1 55842U 23031B   23091.57294436 -.00000235  00000+0  00000+0 0  9997
2 55842   0.2453 285.8995 0070137 147.2347 287.6174  0.98963200   172
BREEZE-M DEB [TANK]     
1 55843U 23031C   23091.46591662  .00000590  00000+0  17070-2 0  9998
2 55843  48.7134 162.2432 7230014   4.4416 359.6140  2.27438445   490
HORUS 2                 
1 55844U 23032A   23091.93417458  .00013377  00000+0  55481-3 0  9998
2 55844  97.4722 165.5670 0011563 182.7798 291.5159 15.23936367  3018
CZ-2C R/B               
1 55845U 23032B   23091.91388282  .00112027  00000+0  52234-2 0  9993
2 55845  97.2599 164.7606 0094566 157.5768 202.9642 15.15460677  2929
CZ-2C DEB               
1 55846U 23032C   23091.93228570  .00009332  00000+0  51826-3 0  9990
2 55846  97.6455 165.8509 0062444 167.6513 192.6266 15.12257553  2997
CZ-2C DEB               
1 55847U 23032D   23091.74802554  .00095803  00000+0  47281-2 0  9997
2 55847  97.6502 165.4136 0105310 154.9511 205.6882 15.12699104  2968
CZ-2C DEB               
1 55848U 23032E   23091.73414208  .00051059  00000+0  44088-2 0  9999
2 55848  97.2679 163.8467 0161325 103.1425 258.7850 14.87484944  2900
CZ-2C DEB               
1 55849U 23032F   23091.75354093  .00053788  00000+0  47563-2 0  9999
2 55849  97.6997 164.7532 0166626 102.8381 259.1509 14.86001392  2915
DRAGON CRS-27           
1 55860U 23033A   23091.72859833  .00024430  00000+0  44398-3 0  9998
2 55860  51.6420 347.3766 0007150 142.6031 251.8064 15.49378139389938
SHIYAN 19 (SY-19)       
1 55861U 23034A   23091.79516645  .00008778  00000+0  40277-3 0  9997
2 55861  97.4657 279.9876 0013654 214.7306 266.2716 15.20579873  2622
2023-035A               
1 55908U 23035A   23091.81505412  .00006983  00000+0  73543-3 0  9991
2 55908  44.1806 229.7322 0004407 262.1996  97.8360 14.89885846  2364
2023-035B               
1 55909U 23035B   23090.87080350  .00022616  00000+0  22866-2 0  9998
2 55909  44.0017 234.9991 0004160 301.4833  58.5614 14.90656881  2229
2023-035C               
1 55910U 23035C   23091.34065363  .00008082  00000+0  83543-3 0  9991
2 55910  44.0024 232.5444 0004693 305.4023  54.6392 14.90465484  2296
GAOFEN 13-02            
1 55912U 23036A   23091.82928939 -.00000239  00000+0  00000+0 0  9994
2 55912   3.0259 300.8535 0002252 304.0833  30.2378  1.00271749   339
CZ-3B R/B               
1 55913U 23036B   23090.73384305  .00077526  70223-6  14397-2 0  9997
2 55913  28.4374 294.5869 7221728 187.9814 146.3212  2.40555517   354
STARLINK-5856           
1 55914U 23037A   23091.91667824 -.00900701  00000+0 -67276-2 0  9995
2 55914  70.0003 138.5268 0003511 277.7948 209.4378 15.74930854  1306
STARLINK-5859           
1 55915U 23037B   23091.91667824 -.00900898  00000+0 -67179-2 0  9995
2 55915  70.0002 138.5244 0003593 282.6610 206.6080 15.74968357  1309
STARLINK-5796           
1 55916U 23037C   23091.91667824 -.00900699  00000+0 -67245-2 0  9999
2 55916  70.0003 138.5262 0003663 285.7554 201.9935 15.74939418  1303
STARLINK-5855           
1 55917U 23037D   23091.91667824 -.00900756  00000+0 -67195-2 0  9998
2 55917  70.0002 138.5251 0003657 285.5654 203.2022 15.74958106  1300
STARLINK-5867           
1 55918U 23037E   23091.91667824 -.00901040  00000+0 -67242-2 0  9999
2 55918  70.0002 138.5255 0003657 285.0966 203.1510 15.74950091  1302
STARLINK-5871           
1 55919U 23037F   23091.91667824 -.00900944  00000+0 -67152-2 0  9992
2 55919  70.0003 138.5238 0003704 287.1446 202.6362 15.74977428  1306
STARLINK-5862           
1 55920U 23037G   23091.91667824 -.00901243  00000+0 -66918-2 0  9996
2 55920  70.0002 138.5183 0003573 281.5966 212.7031 15.75067310  1301
